[{"OBJECT_NAME":"GEESAT-1 09","OBJECT_ID":"2022-058J","EPOCH":"2026-03-09T22:14:58.178400","MEAN_MOTION":14.996745,"ECCENTRICITY":0.0007116,"INCLINATION":49.9974,"RA_OF_ASC_NODE":293.7726,"ARG_OF_PERICENTER":137.6611,"MEAN_ANOMALY":222.4884,"EPHEMERIS_TYPE":0,"CLASSIFICATION_TYPE":"U","NORAD_CAT_ID":52793,"ELEMENT_SET_NO":999,"REV_AT_EPOCH":20534,"BSTAR":0.00045554765,"MEAN_MOTION_DOT":5.429e-5,"MEAN_MOTION_DDOT":0},{"OBJECT_NAME":"STARLINK-6044","OBJECT_ID":"2023-064AH","EPOCH":"2026-03-09T13:25:56.817696","MEAN_MOTION":14.98326461,"ECCENTRICITY":0.0003376,"INCLINATION":69.9997,"RA_OF_ASC_NODE":124.6333,"ARG_OF_PERICENTER":269.6306,"MEAN_ANOMALY":90.4466,"EPHEMERIS_TYPE":0,"CLASSIFICATION_TYPE":"U","NORAD_CAT_ID":56479,"ELEMENT_SET_NO":999,"REV_AT_EPOCH":15572,"BSTAR":-5.2639e-5,"MEAN_MOTION_DOT":-7.21e-6,"MEAN_MOTION_DDOT":0}]
